STARLINK-31636          
1 59747U 24090T   26068.63415125 -.00001493  00000+0 -44775-4 0  9995
2 59747  43.0001 183.6374 0000921 205.3251 154.7555 15.27568577103430
TRANSPORTER-14 OBJECT AC
1 64554U 25135AC  26068.82113864  .00024574  00000+0  93234-3 0  9990
2 64554  97.4518 185.7428 0001008 268.0523  92.0600 15.26845403 39827
