[{"OBJECT_NAME":"STARLINK-31636","OBJECT_ID":"2024-090T","EPOCH":"2026-03-09T15:13:10.668000","MEAN_MOTION":15.27568577,"ECCENTRICITY":9.207e-5,"INCLINATION":43.0001,"RA_OF_ASC_NODE":183.6374,"ARG_OF_PERICENTER":205.3251,"MEAN_ANOMALY":154.7555,"EPHEMERIS_TYPE":0,"CLASSIFICATION_TYPE":"U","NORAD_CAT_ID":59747,"ELEMENT_SET_NO":999,"REV_AT_EPOCH":10343,"BSTAR":-4.4774752e-5,"MEAN_MOTION_DOT":-1.493e-5,"MEAN_MOTION_DDOT":0},{"OBJECT_NAME":"TRANSPORTER-14 OBJECT AC","OBJECT_ID":"2025-135AC","EPOCH":"2026-03-09T19:42:26.378496","MEAN_MOTION":15.26845403,"ECCENTRICITY":0.00010083,"INCLINATION":97.4518,"RA_OF_ASC_NODE":185.7428,"ARG_OF_PERICENTER":268.0523,"MEAN_ANOMALY":92.06,"EPHEMERIS_TYPE":0,"CLASSIFICATION_TYPE":"U","NORAD_CAT_ID":64554,"ELEMENT_SET_NO":999,"REV_AT_EPOCH":3982,"BSTAR":0.0009323368,"MEAN_MOTION_DOT":0.00024574,"MEAN_MOTION_DDOT":0}]
